CCSDS_OMM_VERS = 2.0
CREATION_DATE  = 
ORIGINATOR     = 

OBJECT_NAME    = UNKNOWN
OBJECT_ID      = 
CENTER_NAME    = EARTH
REF_FRAME      = TEME
TIME_SYSTEM    = UTC
MEAN_ELEMENT_THEORY = SGP/SGP4

EPOCH          = 2026-02-28T11:33:56.602368
MEAN_MOTION    = 14.23311743
ECCENTRICITY   = .0027126
INCLINATION    = 82.9509
RA_OF_ASC_NODE = 129.4832
ARG_OF_PERICENTER = 292.8683
MEAN_ANOMALY   = 82.6977

EPHEMERIS_TYPE = 0
CLASSIFICATION_TYPE = U
NORAD_CAT_ID   = 82798
ELEMENT_SET_NO = 999
REV_AT_EPOCH   = 32343
BSTAR          = .83774E-3
MEAN_MOTION_DOT = .192E-4
MEAN_MOTION_DDOT = 0

CCSDS_OMM_VERS = 2.0
CREATION_DATE  = 
ORIGINATOR     = 

OBJECT_NAME    = UNKNOWN
OBJECT_ID      = 
CENTER_NAME    = EARTH
REF_FRAME      = TEME
TIME_SYSTEM    = UTC
MEAN_ELEMENT_THEORY = SGP/SGP4

EPOCH          = 2026-03-26T22:58:44.010912
MEAN_MOTION    = 14.35847230
ECCENTRICITY   = .0048687
INCLINATION    = 99.7965
RA_OF_ASC_NODE = 265.6425
ARG_OF_PERICENTER = 79.2026
MEAN_ANOMALY   = 281.4631

EPHEMERIS_TYPE = 0
CLASSIFICATION_TYPE = U
NORAD_CAT_ID   = 82820
ELEMENT_SET_NO = 999
REV_AT_EPOCH   = 64058
BSTAR          = .99701E-3
MEAN_MOTION_DOT = .2874E-4
MEAN_MOTION_DDOT = 0

CCSDS_OMM_VERS = 2.0
CREATION_DATE  = 
ORIGINATOR     = 

OBJECT_NAME    = UNKNOWN
OBJECT_ID      = 
CENTER_NAME    = EARTH
REF_FRAME      = TEME
TIME_SYSTEM    = UTC
MEAN_ELEMENT_THEORY = SGP/SGP4

EPOCH          = 2026-03-25T11:43:14.890656
MEAN_MOTION    = 11.29179881
ECCENTRICITY   = .0175129
INCLINATION    = 65.0952
RA_OF_ASC_NODE = 253.4585
ARG_OF_PERICENTER = 314.9407
MEAN_ANOMALY   = 65.8445

EPHEMERIS_TYPE = 0
CLASSIFICATION_TYPE = U
NORAD_CAT_ID   = 82829
ELEMENT_SET_NO = 999
REV_AT_EPOCH   = 49768
BSTAR          = .69735E-2
MEAN_MOTION_DOT = .21E-5
MEAN_MOTION_DDOT = 0

CCSDS_OMM_VERS = 2.0
CREATION_DATE  = 
ORIGINATOR     = 

OBJECT_NAME    = UNKNOWN
OBJECT_ID      = 
CENTER_NAME    = EARTH
REF_FRAME      = TEME
TIME_SYSTEM    = UTC
MEAN_ELEMENT_THEORY = SGP/SGP4

EPOCH          = 2026-03-25T23:32:18.602304
MEAN_MOTION    = 13.88237661
ECCENTRICITY   = .0131694
INCLINATION    = 82.6915
RA_OF_ASC_NODE = 343.6072
ARG_OF_PERICENTER = 349.2066
MEAN_ANOMALY   = 10.6274

EPHEMERIS_TYPE = 0
CLASSIFICATION_TYPE = U
NORAD_CAT_ID   = 82854
ELEMENT_SET_NO = 999
REV_AT_EPOCH   = 62212
BSTAR          = .13992E-2
MEAN_MOTION_DOT = .1806E-4
MEAN_MOTION_DDOT = 0

CCSDS_OMM_VERS = 2.0
CREATION_DATE  = 
ORIGINATOR     = 

OBJECT_NAME    = UNKNOWN
OBJECT_ID      = 
CENTER_NAME    = EARTH
REF_FRAME      = TEME
TIME_SYSTEM    = UTC
MEAN_ELEMENT_THEORY = SGP/SGP4

EPOCH          = 2026-03-25T11:37:25.896000
MEAN_MOTION    = 14.25270445
ECCENTRICITY   = .0040407
INCLINATION    = 99.9944
RA_OF_ASC_NODE = 357.7670
ARG_OF_PERICENTER = 358.9380
MEAN_ANOMALY   = 1.1703

EPHEMERIS_TYPE = 0
CLASSIFICATION_TYPE = U
NORAD_CAT_ID   = 82873
ELEMENT_SET_NO = 999
REV_AT_EPOCH   = 63586
BSTAR          = .15357E-2
MEAN_MOTION_DOT = .3591E-4
MEAN_MOTION_DDOT = 0

CCSDS_OMM_VERS = 2.0
CREATION_DATE  = 
ORIGINATOR     = 

OBJECT_NAME    = UNKNOWN
OBJECT_ID      = 
CENTER_NAME    = EARTH
REF_FRAME      = TEME
TIME_SYSTEM    = UTC
MEAN_ELEMENT_THEORY = SGP/SGP4

EPOCH          = 2026-03-25T04:49:56.312544
MEAN_MOTION    = 14.15354708
ECCENTRICITY   = .0377138
INCLINATION    = 98.6899
RA_OF_ASC_NODE = 70.1026
ARG_OF_PERICENTER = 349.2937
MEAN_ANOMALY   = 10.0367

EPHEMERIS_TYPE = 0
CLASSIFICATION_TYPE = U
NORAD_CAT_ID   = 82875
ELEMENT_SET_NO = 999
REV_AT_EPOCH   = 55896
BSTAR          = .33149E-3
MEAN_MOTION_DOT = .1236E-4
MEAN_MOTION_DDOT = 0

CCSDS_OMM_VERS = 2.0
CREATION_DATE  = 
ORIGINATOR     = 

OBJECT_NAME    = UNKNOWN
OBJECT_ID      = 
CENTER_NAME    = EARTH
REF_FRAME      = TEME
TIME_SYSTEM    = UTC
MEAN_ELEMENT_THEORY = SGP/SGP4

EPOCH          = 2026-03-27T07:09:47.318976
MEAN_MOTION    = 14.33627863
ECCENTRICITY   = .0025442
INCLINATION    = 98.9608
RA_OF_ASC_NODE = 209.9079
ARG_OF_PERICENTER = 106.6547
MEAN_ANOMALY   = 253.7432

EPHEMERIS_TYPE = 0
CLASSIFICATION_TYPE = U
NORAD_CAT_ID   = 82893
ELEMENT_SET_NO = 999
REV_AT_EPOCH   = 43894
BSTAR          = .27338E-2
MEAN_MOTION_DOT = .7564E-4
MEAN_MOTION_DDOT = 0

CCSDS_OMM_VERS = 2.0
CREATION_DATE  = 
ORIGINATOR     = 

OBJECT_NAME    = UNKNOWN
OBJECT_ID      = 
CENTER_NAME    = EARTH
REF_FRAME      = TEME
TIME_SYSTEM    = UTC
MEAN_ELEMENT_THEORY = SGP/SGP4

EPOCH          = 2026-03-25T06:59:52.506816
MEAN_MOTION    = 13.28455214
ECCENTRICITY   = .0770106
INCLINATION    = 65.8336
RA_OF_ASC_NODE = 297.7839
ARG_OF_PERICENTER = 222.3175
MEAN_ANOMALY   = 131.5945

EPHEMERIS_TYPE = 0
CLASSIFICATION_TYPE = U
NORAD_CAT_ID   = 82912
ELEMENT_SET_NO = 999
REV_AT_EPOCH   = 59294
BSTAR          = .74405E-3
MEAN_MOTION_DOT = .1738E-4
MEAN_MOTION_DDOT = 0

CCSDS_OMM_VERS = 2.0
CREATION_DATE  = 
ORIGINATOR     = 

OBJECT_NAME    = UNKNOWN
OBJECT_ID      = 
CENTER_NAME    = EARTH
REF_FRAME      = TEME
TIME_SYSTEM    = UTC
MEAN_ELEMENT_THEORY = SGP/SGP4

EPOCH          = 2026-03-25T09:17:17.270016
MEAN_MOTION    = 13.26472724
ECCENTRICITY   = .0408835
INCLINATION    = 99.8227
RA_OF_ASC_NODE = 238.6265
ARG_OF_PERICENTER = 127.4248
MEAN_ANOMALY   = 236.4817

EPHEMERIS_TYPE = 0
CLASSIFICATION_TYPE = U
NORAD_CAT_ID   = 82961
ELEMENT_SET_NO = 999
REV_AT_EPOCH   = 56930
BSTAR          = .12316E-1
MEAN_MOTION_DOT = .8543E-4
MEAN_MOTION_DDOT = 0

CCSDS_OMM_VERS = 2.0
CREATION_DATE  = 
ORIGINATOR     = 

OBJECT_NAME    = UNKNOWN
OBJECT_ID      = 
CENTER_NAME    = EARTH
REF_FRAME      = TEME
TIME_SYSTEM    = UTC
MEAN_ELEMENT_THEORY = SGP/SGP4

EPOCH          = 2026-03-13T16:17:22.427520
MEAN_MOTION    = 13.60232436
ECCENTRICITY   = .0003543
INCLINATION    = 100.1074
RA_OF_ASC_NODE = 160.1438
ARG_OF_PERICENTER = 183.0318
MEAN_ANOMALY   = 177.0799

EPHEMERIS_TYPE = 0
CLASSIFICATION_TYPE = U
NORAD_CAT_ID   = 82965
ELEMENT_SET_NO = 999
REV_AT_EPOCH   = 53681
BSTAR          = .15749E-2
MEAN_MOTION_DOT = .1132E-4
MEAN_MOTION_DDOT = 0

CCSDS_OMM_VERS = 2.0
CREATION_DATE  = 
ORIGINATOR     = 

OBJECT_NAME    = UNKNOWN
OBJECT_ID      = 
CENTER_NAME    = EARTH
REF_FRAME      = TEME
TIME_SYSTEM    = UTC
MEAN_ELEMENT_THEORY = SGP/SGP4

EPOCH          = 2026-03-27T02:59:12.429024
MEAN_MOTION    = 0.99114795
ECCENTRICITY   = .012202
INCLINATION    = 5.9281
RA_OF_ASC_NODE = 289.7191
ARG_OF_PERICENTER = 254.1949
MEAN_ANOMALY   = 73.2712

EPHEMERIS_TYPE = 0
CLASSIFICATION_TYPE = U
NORAD_CAT_ID   = 83903
ELEMENT_SET_NO = 999
REV_AT_EPOCH   = 4469
BSTAR          = 0
MEAN_MOTION_DOT = -.39E-6
MEAN_MOTION_DDOT = 0

CCSDS_OMM_VERS = 2.0
CREATION_DATE  = 
ORIGINATOR     = 

OBJECT_NAME    = UNKNOWN
OBJECT_ID      = 
CENTER_NAME    = EARTH
REF_FRAME      = TEME
TIME_SYSTEM    = UTC
MEAN_ELEMENT_THEORY = SGP/SGP4

EPOCH          = 2026-03-27T05:38:34.642752
MEAN_MOTION    = 1.02663674
ECCENTRICITY   = .0223121
INCLINATION    = 5.5490
RA_OF_ASC_NODE = 296.8485
ARG_OF_PERICENTER = 275.9173
MEAN_ANOMALY   = 287.1473

EPHEMERIS_TYPE = 0
CLASSIFICATION_TYPE = U
NORAD_CAT_ID   = 83934
ELEMENT_SET_NO = 999
REV_AT_EPOCH   = 4635
BSTAR          = 0
MEAN_MOTION_DOT = -.216E-5
MEAN_MOTION_DDOT = 0

